1 33061U 08031B   19282.84511429 -.00000049 +00000-0 +23339-4 0  9999
2 33061 048.4479 047.9342 0005554 171.5444 329.0856 14.73427286607577
1 33061U 08031B   19283.36808750 -.00000053  00000-0  22759-4 0  9993
2 33061  48.4480  45.4731 0005571 173.8904 222.9893 14.73427435608040
1 33061U 08031B   19283.86321620 -.00000057 +00000-0 +22190-4 0  9997
2 33061 048.4480 043.1432 0005591 176.0505 329.2638 14.73427558607725
